{
    "sweeps": [
        {
            "name": "Planet Nine",
            "mass": 2.0648237500000003e-05,
            "semi_major_axis": 357.4,
            "inclination": 0.29365164664804594,
            "eccentricity": 0.3,
            "argument_of_perihelion": 2.632392844320447,
            "longitude_of_ascending_node": 1.5638150097869192,
            "mean_anomaly": 0
        },
        {
            "name": "Planet Nine",
            "mass": 1.5917914e-05,
            "semi_major_axis": 392.66249999999997,
            "inclination": 0.22427480888127133,
            "eccentricity": 0.22499999999999998,
            "argument_of_perihelion": 2.1502456384570134,
            "longitude_of_ascending_node": 1.921607506445757,
            "mean_anomaly": 0
        },
        {
            "name": "Planet Nine",
            "mass": 2.6955335500000003e-05,
            "semi_major_axis": 463.1875,
            "inclination": 0.3167772592369708,
            "eccentricity": 0.275,
            "argument_of_perihelion": 2.899864552188578,
            "longitude_of_ascending_node": 1.4206980111233842,
            "mean_anomaly": 0
        },
        {
            "name": "Planet Nine",
            "mass": 1.7494688500000002e-05,
            "semi_major_axis": 568.975,
            "inclination": 0.17802358370342158,
            "eccentricity": 0.19999999999999998,
            "argument_of_perihelion": 3.014838116663704,
            "longitude_of_ascending_node": 1.4922565104551517,
            "mean_anomaly": 0
        },
        {
            "name": "Planet Nine",
            "mass": 2.3801786500000003e-05,
            "semi_major_axis": 604.2375,
            "inclination": 0.3399028718258957,
            "eccentricity": 0.375,
            "argument_of_perihelion": 2.4083362015956746,
            "longitude_of_ascending_node": 1.8500490071139895,
            "mean_anomaly": 0
        },
        {
            "name": "Planet Nine",
            "mass": 1.9071463e-05,
            "semi_major_axis": 498.45,
            "inclination": 0.20114919629234645,
            "eccentricity": 0.35,
            "argument_of_perihelion": 2.4270984910546143,
            "longitude_of_ascending_node": 1.7069320084504542,
            "mean_anomaly": 0
        },
        {
            "name": "Planet Nine",
            "mass": 2.2225012000000004e-05,
            "semi_major_axis": 427.92499999999995,
            "inclination": 0.27052603405912107,
            "eccentricity": 0.325,
            "argument_of_perihelion": 2.6042494101320384,
            "longitude_of_ascending_node": 1.7784905077822217,
            "mean_anomaly": 0
        },
        {
            "name": "Planet Nine",
            "mass": 2.5378561000000005e-05,
            "semi_major_axis": 533.7125,
            "inclination": 0.2474004214701962,
            "eccentricity": 0.25,
            "argument_of_perihelion": 2.8095437633978713,
            "longitude_of_ascending_node": 1.6353735091186867,
            "mean_anomaly": 0
        }
    ],
    "bodies": [
        {
            "name": "TNO-4501",
            "mass": 0,
            "semi_major_axis": 303.9179286761114,
            "eccentricity": 0.8439765510503175,
            "inclination": 0.1918839023748529,
            "longitude_of_ascending_node": 3.2406351831020612,
            "argument_of_perihelion": 4.382572527514769,
            "mean_anomaly": 3.8588267304051174
        },
        {
            "name": "TNO-4502",
            "mass": 0,
            "semi_major_axis": 303.952125061065,
            "eccentricity": 0.8439863214460186,
            "inclination": 0.1919265337684043,
            "longitude_of_ascending_node": 5.866032898937616,
            "argument_of_perihelion": 3.312844166431511,
            "mean_anomaly": 4.875010825321361
        },
        {
            "name": "TNO-4503",
            "mass": 0,
            "semi_major_axis": 303.98632144601856,
            "eccentricity": 0.8439960918417196,
            "inclination": 0.1919691651619557,
            "longitude_of_ascending_node": 4.547469209516012,
            "argument_of_perihelion": 3.529098412217571,
            "mean_anomaly": 2.966312407563735
        },
        {
            "name": "TNO-4504",
            "mass": 0,
            "semi_major_axis": 304.02051783097215,
            "eccentricity": 0.8440058622374207,
            "inclination": 0.1920117965555071,
            "longitude_of_ascending_node": 3.559828150078807,
            "argument_of_perihelion": 2.865244212327184,
            "mean_anomaly": 1.169650375060662
        },
        {
            "name": "TNO-4505",
            "mass": 0,
            "semi_major_axis": 304.05471421592574,
            "eccentricity": 0.8440156326331216,
            "inclination": 0.1920544279490585,
            "longitude_of_ascending_node": 0.5636922576432299,
            "argument_of_perihelion": 1.315842572992724,
            "mean_anomaly": 3.227056242586736
        },
        {
            "name": "TNO-4506",
            "mass": 0,
            "semi_major_axis": 304.08891060087933,
            "eccentricity": 0.8440254030288227,
            "inclination": 0.19209705934260987,
            "longitude_of_ascending_node": 5.716849742135443,
            "argument_of_perihelion": 3.98163021181351,
            "mean_anomaly": 3.246754391505184
        },
        {
            "name": "TNO-4507",
            "mass": 0,
            "semi_major_axis": 304.1231069858329,
            "eccentricity": 0.8440351734245237,
            "inclination": 0.19213969073616127,
            "longitude_of_ascending_node": 1.1268351737769942,
            "argument_of_perihelion": 3.1595769392829873,
            "mean_anomaly": 5.115383844797241
        },
        {
            "name": "TNO-4508",
            "mass": 0,
            "semi_major_axis": 304.1573033707865,
            "eccentricity": 0.8440449438202248,
            "inclination": 0.19218232212971267,
            "longitude_of_ascending_node": 3.4627950241056222,
            "argument_of_perihelion": 2.4266992835990155,
            "mean_anomaly": 5.232011698077475
        },
        {
            "name": "TNO-4509",
            "mass": 0,
            "semi_major_axis": 304.1914997557401,
            "eccentricity": 0.8440547142159258,
            "inclination": 0.19222495352326407,
            "longitude_of_ascending_node": 4.5377969459924214,
            "argument_of_perihelion": 4.689620410442937,
            "mean_anomaly": 6.151603690359739
        },
        {
            "name": "TNO-4510",
            "mass": 0,
            "semi_major_axis": 304.2256961406937,
            "eccentricity": 0.8440644846116268,
            "inclination": 0.19226758491681548,
            "longitude_of_ascending_node": 5.413966575451766,
            "argument_of_perihelion": 1.978138788518013,
            "mean_anomaly": 5.400721102673902
        },
        {
            "name": "TNO-4511",
            "mass": 0,
            "semi_major_axis": 304.2598925256473,
            "eccentricity": 0.8440742550073278,
            "inclination": 0.19231021631036688,
            "longitude_of_ascending_node": 0.20373380136982944,
            "argument_of_perihelion": 1.9382476163016389,
            "mean_anomaly": 1.507227673978944
        },
        {
            "name": "TNO-4512",
            "mass": 0,
            "semi_major_axis": 304.29408891060086,
            "eccentricity": 0.8440840254030288,
            "inclination": 0.19235284770391828,
            "longitude_of_ascending_node": 4.8864353439301835,
            "argument_of_perihelion": 1.3088314229173512,
            "mean_anomaly": 2.067059166116778
        },
        {
            "name": "TNO-4513",
            "mass": 0,
            "semi_major_axis": 304.32828529555445,
            "eccentricity": 0.8440937957987299,
            "inclination": 0.19239547909746968,
            "longitude_of_ascending_node": 4.8343255382432595,
            "argument_of_perihelion": 3.486791950994975,
            "mean_anomaly": 3.6813006535307786
        },
        {
            "name": "TNO-4514",
            "mass": 0,
            "semi_major_axis": 304.36248168050804,
            "eccentricity": 0.8441035661944309,
            "inclination": 0.19243811049102108,
            "longitude_of_ascending_node": 1.6131831015786537,
            "argument_of_perihelion": 4.302076814969548,
            "mean_anomaly": 3.3159486228498354
        },
        {
            "name": "TNO-4515",
            "mass": 0,
            "semi_major_axis": 304.39667806546163,
            "eccentricity": 0.8441133365901319,
            "inclination": 0.19248074188457248,
            "longitude_of_ascending_node": 5.418747959468697,
            "argument_of_perihelion": 6.077810374922686,
            "mean_anomaly": 4.319936519428082
        },
        {
            "name": "TNO-4516",
            "mass": 0,
            "semi_major_axis": 304.4308744504152,
            "eccentricity": 0.8441231069858329,
            "inclination": 0.19252337327812388,
            "longitude_of_ascending_node": 1.0963449683038355,
            "argument_of_perihelion": 1.9661628574951173,
            "mean_anomaly": 3.7882269431127615
        },
        {
            "name": "TNO-4517",
            "mass": 0,
            "semi_major_axis": 304.4650708353688,
            "eccentricity": 0.844132877381534,
            "inclination": 0.19256600467167528,
            "longitude_of_ascending_node": 0.17405921385275255,
            "argument_of_perihelion": 5.041022586847118,
            "mean_anomaly": 3.253850735294661
        }
    ]
}